KUZGTU 1 (RS47S)        
1 57217U 23091AV  26181.83379580  .00013588  00000+0  46686-3 0  9995
2 57217  97.5060 246.4545 0011563  55.1994 305.0333 15.30170772166463
SONATE-2                
1 59112U 24043Q   26181.35906171  .00036054  00000+0  45103-3 0  9994
2 59112  97.5538 332.5725 0007218 152.8978 207.2657 15.59704292129940
MESAT1                  
1 60209U 24125G   26181.09552302  .00055795  00000+0  57395-3 0  9997
2 60209  97.2269  38.8841 0010656 159.6539 200.5147 15.64639845111588
OOV-CUBE (TUBSAT-30)    
1 60240U 24128F   26181.56269237  .00001824  00000+0  14864-3 0  9997
2 60240  61.9924 178.9308 0042979 136.7327 223.7153 15.02821133108122
COLIBRI-S (RS67S)       
1 61746U 24199M   26181.83068500  .00024535  00000+0  46543-3 0  9990
2 61746  97.2972  55.8130 0007063 215.4425 144.6357 15.48282920139524
HORS 3 (RS81S)          
1 61753U 24199U   26181.79263370  .00036609  00000+0  52771-3 0  9990
2 61753  97.2957  57.9119 0005032 206.1688 153.9314 15.55912719139673
HORS 4 (RS82S)          
1 61754U 24199V   26181.77493986  .00054417  00000+0  64697-3 0  9994
2 61754  97.2901  59.1860 0005074 192.7983 167.3146 15.60971603139769
SIT-2086                
1 61764U 24199AF  26181.85181244  .00039078  00000+0  60304-3 0  9992
2 61764  97.2912  58.4016 0006388 190.4567 169.6555 15.54021101136554
HYPERVIEW 1G (RS66S)    
1 61772U 24199AP  26181.82600108  .00199408  00000+0  10605-2 0  9995
2 61772  97.2835  62.2715 0006954 177.0549 183.0761 15.79892045136825
ALTAIR (RS65S)          
1 61779U 24199AW  26181.78263925  .00010808  00000+0  29752-3 0  9999
2 61779  97.3010  51.0450 0010844 253.9551 106.0500 15.37281317139209
ASRTU-1 (AO-123)        
1 61781U 24199AY  26181.84783938  .00008193  00000+0  23651-3 0  9996
2 61781  97.2981  50.3960 0011922 257.6565 102.3345 15.35867271136020
SAMSAT-IONOSPHERE (RS7*)
1 61784U 24199BB  26181.80240735  .00051487  00000+0  66392-3 0  9991
2 61784  97.2923  58.0198 0007248 211.4942 148.5881 15.58824712139680
RTU MIREA 1 (RS51S)     
1 61785U 24199BC  26181.79541903  .00063001  00000+0  70232-3 0  9994
2 61785  97.2909  58.9176 0007302 203.8263 156.2659 15.62593792136594
TEVEL2-4                
1 63213U 25052D   26180.96071089  .00019361  00000+0  57064-3 0  9990
2 63213  97.3893  77.3762 0004732  79.7406 280.4371 15.35054118 72071
TEVEL2-5                
1 63214U 25052E   26181.24344693  .00016701  00000+0  49542-3 0  9994
2 63214  97.3890  77.6036 0004701  80.7172 279.4603 15.34882414 72112
TEVEL2-6                
1 63215U 25052F   26181.51685502  .00018240  00000+0  54121-3 0  9991
2 63215  97.3897  77.8619 0004504  81.0945 279.0808 15.34857280 72152
TEVEL2-1                
1 63217U 25052H   26180.96361751  .00018395  00000+0  55563-3 0  9990
2 63217  97.3866  76.9168 0004974  89.0963 271.0850 15.34288206 72052
TEVEL2-3                
1 63218U 25052J   26180.95778371  .00018482  00000+0  55722-3 0  9994
2 63218  97.3871  76.9346 0004828  90.2105 269.9691 15.34347673 72050
TEVEL2-2                
1 63219U 25052K   26179.65946029  .00016937  00000+0  51245-3 0  9996
2 63219  97.3871  75.6148 0005015  92.1173 268.0645 15.34253315 71857
OTP-2                   
1 63235U 25052AB  26181.22703005  .00007022  00000+0  29121-3 0  9998
2 63235  97.3859  73.4628 0008158 111.1138 249.0973 15.24154574 71853
TEVEL2-9                
1 63237U 25052AD  26181.21912539  .00014659  00000+0  47181-3 0  9993
2 63237  97.3929  76.5220 0008308  96.6090 263.6098 15.32290550 72020
TEVEL2-7                
1 63238U 25052AE  26181.65447772  .00016416  00000+0  53277-3 0  9990
2 63238  97.3931  76.8668 0008383  95.4653 264.7545 15.31999023 72083
TEVEL2-8                
1 63239U 25052AF  26181.66286101  .00016322  00000+0  52998-3 0  9994
2 63239  97.3931  76.8517 0008443  96.1154 264.1049 15.31984163 72080
INNOSAT 16 (RS92S7)     
1 64878U 25155C   26181.84226479  .00006675  00000+0  26511-3 0  9992
2 64878  97.4571 148.9279 0011967 131.3304 228.8965 15.25600307 82758
GEOSCAN 6 (RS92S6)      
1 64879U 25155D   26181.84810975  .00012350  00000+0  42183-3 0  9993
2 64879  97.4561 150.4552 0009696 121.8914 238.3271 15.30404815 82856
GEOSCAN 1 (RS92S1)      
1 64880U 25155E   26181.71441661  .00011460  00000+0  38425-3 0  9998
2 64880  97.4558 150.4808 0009631 122.2778 237.9397 15.31024246 82840
239ALFEROV (RS61S)      
1 64881U 25155F   26181.86017284  .00017778  00000+0  55344-3 0  9992
2 64881  97.4559 151.2355 0009330 120.6056 239.6108 15.33307231 82901
GEOSCAN 2 (RS92S2)      
1 64890U 25155Q   26181.83642735  .00012338  00000+0  41013-3 0  9999
2 64890  97.4557 150.7613 0009119 111.1626 249.0590 15.31289390 82872
GEOSCAN 5 (RS92S5)      
1 64891U 25155R   26181.84637906  .00017314  00000+0  53399-3 0  9994
2 64891  97.4550 151.3643 0008242 124.0596 236.1430 15.33621021 82919
GEOSCAN 4 (RS92S4)      
1 64892U 25155S   26181.76393451  .00014782  00000+0  45415-3 0  9996
2 64892  97.4554 151.3334 0008262 124.0003 236.2026 15.33776601 82902
