OBJECT_NAME,OBJECT_ID,EPOCH,MEAN_MOTION,ECCENTRICITY,INCLINATION,RA_OF_ASC_NODE,ARG_OF_PERICENTER,MEAN_ANOMALY,EPHEMERIS_TYPE,CLASSIFICATION_TYPE,NORAD_CAT_ID,ELEMENT_SET_NO,REV_AT_EPOCH,BSTAR,MEAN_MOTION_DOT,MEAN_MOTION_DDOT
KUZGTU 1 (RS47S),2023-091AV,2026-06-30T20:00:39.957120,15.30170772,.0011563,97.5060,246.4545,55.1994,305.0333,0,U,57217,999,16646,.46686E-3,.13588E-3,0
SONATE-2,2024-043Q,2026-06-30T08:37:02.931744,15.59704292,.00072185,97.5538,332.5725,152.8978,207.2657,0,U,59112,999,12994,.45102992E-3,.36054E-3,0
MESAT1,2024-125G,2026-06-30T02:17:33.188928,15.64639845,.00106565,97.2269,38.8841,159.6539,200.5147,0,U,60209,999,11158,.57394663E-3,.55795E-3,0
OOV-CUBE (TUBSAT-30),2024-128F,2026-06-30T13:30:16.620768,15.02821133,.0042979,61.9924,178.9308,136.7327,223.7153,0,U,60240,999,10812,.14864E-3,.1824E-4,0
COLIBRI-S (RS67S),2024-199M,2026-06-30T19:56:11.184000,15.48282920,.0007063,97.2972,55.8130,215.4425,144.6357,0,U,61746,999,13952,.46543E-3,.24535E-3,0
HORS 3 (RS81S),2024-199U,2026-06-30T19:01:23.551680,15.55912719,.0005032,97.2957,57.9119,206.1688,153.9314,0,U,61753,999,13967,.52771E-3,.36609E-3,0
HORS 4 (RS82S),2024-199V,2026-06-30T18:35:54.803904,15.60971603,.0005074,97.2901,59.1860,192.7983,167.3146,0,U,61754,999,13976,.64697E-3,.54417E-3,0
SIT-2086,2024-199AF,2026-06-30T20:26:36.594816,15.54021101,.0006388,97.2912,58.4016,190.4567,169.6555,0,U,61764,999,13655,.60304E-3,.39078E-3,0
HYPERVIEW 1G (RS66S),2024-199AP,2026-06-30T19:49:26.493312,15.79892045,.0006954,97.2835,62.2715,177.0549,183.0761,0,U,61772,999,13682,.10605E-2,.199408E-2,0
ALTAIR (RS65S),2024-199AW,2026-06-30T18:47:00.031200,15.37281317,.0010844,97.3010,51.0450,253.9551,106.0500,0,U,61779,999,13920,.29752E-3,.10808E-3,0
ASRTU-1 (AO-123),2024-199AY,2026-06-30T20:20:53.322432,15.35867271,.0011922,97.2981,50.3960,257.6565,102.3345,0,U,61781,999,13602,.23651E-3,.8193E-4,0
SAMSAT-IONOSPHERE (RS75S),2024-199BB,2026-06-30T19:15:27.995040,15.58824712,.0007248,97.2923,58.0198,211.4942,148.5881,0,U,61784,999,13968,.66392E-3,.51487E-3,0
RTU MIREA 1 (RS51S),2024-199BC,2026-06-30T19:05:24.204192,15.62593792,.0007302,97.2909,58.9176,203.8263,156.2659,0,U,61785,999,13659,.70232E-3,.63001E-3,0
TEVEL2-4,2025-052D,2026-06-29T23:03:25.420896,15.35054118,.00047321,97.3893,77.3762,79.7406,280.4371,0,U,63213,999,7207,.57064181E-3,.19361E-3,0
TEVEL2-5,2025-052E,2026-06-30T05:50:33.814752,15.34882414,.00047019,97.3890,77.6036,80.7172,279.4603,0,U,63214,999,7211,.49541717E-3,.16701E-3,0
TEVEL2-6,2025-052F,2026-06-30T12:24:16.273728,15.34857280,.00045046,97.3897,77.8619,81.0945,279.0808,0,U,63215,999,7215,.54121331E-3,.1824E-3,0
TEVEL2-1,2025-052H,2026-06-29T23:07:36.552864,15.34288206,.00049749,97.3866,76.9168,89.0963,271.0850,0,U,63217,999,7205,.5556305E-3,.18395E-3,0
TEVEL2-3,2025-052J,2026-06-29T22:59:12.512544,15.34347673,.00048285,97.3871,76.9346,90.2105,269.9691,0,U,63218,999,7205,.55721892E-3,.18482E-3,0
TEVEL2-2,2025-052K,2026-06-28T15:49:37.369056,15.34253315,.00050154,97.3871,75.6148,92.1173,268.0645,0,U,63219,999,7185,.51245467E-3,.16937E-3,0
OTP-2,2025-052AB,2026-06-30T05:26:55.396320,15.24154574,.00081582,97.3859,73.4628,111.1138,249.0973,0,U,63235,999,7185,.29120606E-3,.7022E-4,0
TEVEL2-9,2025-052AD,2026-06-30T05:15:32.433696,15.32290550,.00083087,97.3929,76.5220,96.6090,263.6098,0,U,63237,999,7202,.47181125E-3,.14659E-3,0
TEVEL2-7,2025-052AE,2026-06-30T15:42:26.875008,15.31999023,.0008383,97.3931,76.8668,95.4653,264.7545,0,U,63238,999,7208,.53277E-3,.16416E-3,0
TEVEL2-8,2025-052AF,2026-06-30T15:54:31.191264,15.31984163,.0008443,97.3931,76.8517,96.1154,264.1049,0,U,63239,999,7208,.52998E-3,.16322E-3,0
INNOSAT 16 (RS92S7),2025-155C,2026-06-30T20:12:51.677856,15.25600307,.0011967,97.4571,148.9279,131.3304,228.8965,0,U,64878,999,8275,.26511E-3,.6675E-4,0
GEOSCAN 6 (RS92S6),2025-155D,2026-06-30T20:21:16.682400,15.30404815,.0009696,97.4561,150.4552,121.8914,238.3271,0,U,64879,999,8285,.42183E-3,.1235E-3,0
GEOSCAN 1 (RS92S1),2025-155E,2026-06-30T17:08:45.595104,15.31024246,.0009631,97.4558,150.4808,122.2778,237.9397,0,U,64880,999,8284,.38425E-3,.1146E-3,0
239ALFEROV (RS61S),2025-155F,2026-06-30T20:38:38.933376,15.33307231,.000933,97.4559,151.2355,120.6056,239.6108,0,U,64881,999,8290,.55344E-3,.17778E-3,0
GEOSCAN 2 (RS92S2),2025-155Q,2026-06-30T20:04:27.323040,15.31289390,.0009119,97.4557,150.7613,111.1626,249.0590,0,U,64890,999,8287,.41013E-3,.12338E-3,0
GEOSCAN 5 (RS92S5),2025-155R,2026-06-30T20:18:47.150784,15.33621021,.0008242,97.4550,151.3643,124.0596,236.1430,0,U,64891,999,8291,.53399E-3,.17314E-3,0
GEOSCAN 4 (RS92S4),2025-155S,2026-06-30T18:20:03.941664,15.33776601,.0008262,97.4554,151.3334,124.0003,236.2026,0,U,64892,999,8290,.45415E-3,.14782E-3,0
